[
    {
        "Altitude(m)": 604221.2192521007,
        "Argument of Periapsis(deg)": 0.0,
        "Eccentricity": 0.0,
        "Inclination(deg)": 60.0,
        "Latitude(deg)": 14.117330965739832,
        "Longitude(deg)": 158.33417212602413,
        "Mean Anomaly(deg)": 16.363599999999984,
        "RAAN(deg)": 250.00000000000003,
        "Satellite Name": "Test1 1101",
        "Satellite Number": 1101,
        "Semi-Major Axis(m)": 6980739.136638005,
        "Time(s)": 0
    },
    {
        "Altitude(m)": 604235.360613496,
        "Argument of Periapsis(deg)": 0.00010418945913296404,
        "Eccentricity": 0.0,
        "Inclination(deg)": 60.0,
        "Latitude(deg)": 14.651727352755884,
        "Longitude(deg)": 158.62261990504575,
        "Mean Anomaly(deg)": 16.983706145461838,
        "RAAN(deg)": 249.99957995086027,
        "Satellite Name": "Test1 1101",
        "Satellite Number": 1101,
        "Semi-Major Axis(m)": 6980739.136638005,
        "Time(s)": 10
    }
]